NORAD_CAT_ID,OBJECT_NAME,OBJECT_TYPE,EPOCH,MEAN_MOTION,ECCENTRICITY,INCLINATION,RA_OF_ASC_NODE,ARG_OF_PERICENTER,MEAN_ANOMALY,BSTAR,MEAN_MOTION_DOT,MEAN_MOTION_DDOT,TLE_LINE0,TLE_LINE1,TLE_LINE2,SEMIMAJOR_AXIS,PERIOD,APOGEE,PERIGEE,DECAYED
55318.0,STARLINK-5180,PAYLOAD,2024-01-31 18:08:43,14.98328637,0.0002908,70.0005,140.6744,267.7578,92.3248,-6.7008e-05,-8.92e-06,0.0,0 STARLINK-5180,1 55318U 23010BB  24031.75606054 -.00000892  00000-0 -67008-4 0  9997,2 55318  70.0005 140.6744 0002908 267.7578  92.3248 14.98328637 59613,6950.197,96.107,574.083,570.041,0.0
55318.0,STARLINK-5180,PAYLOAD,2024-02-01 11:46:12,14.98326007,0.0002876,70.0008,138.8236,267.0184,93.0646,7.8565e-05,8.44e-06,0.0,0 STARLINK-5180,1 55318U 23010BB  24032.49041911  .00000844  00000-0  78565-4 0  9999,2 55318  70.0008 138.8236 0002876 267.0184  93.0646 14.98326007 58530,6950.205,96.107,574.069,570.071,0.0
55318.0,STARLINK-5180,PAYLOAD,2024-02-02 11:48:12,14.98331707,0.000282,70.0013,136.3008,260.8707,99.2133,7.7102e-05,8.27e-06,0.0,0 STARLINK-5180,1 55318U 23010BB  24033.49181590  .00000827  00000-0  77102-4 0  9995,2 55318  70.0013 136.3008 0002820 260.8707  99.2133 14.98331707 58685,6950.188,96.107,574.013,570.093,0.0
55318.0,STARLINK-5180,PAYLOAD,2024-02-02 13:24:20,14.98331922,0.0002839,70.001,136.1315,261.3693,98.7144,8.1101e-05,8.75e-06,0.0,0 STARLINK-5180,1 55318U 23010BB  24033.55857554  .00000875  00000-0  81101-4 0  9999,2 55318  70.0010 136.1315 0002839 261.3693  98.7144 14.98331922 59889,6950.187,96.107,574.025,570.079,0.0
55318.0,STARLINK-5180,PAYLOAD,2024-02-02 16:36:37,14.98332191,0.0002886,70.0007,135.7946,266.6206,93.4623,7.6733e-05,8.23e-06,0.0,0 STARLINK-5180,1 55318U 23010BB  24033.69209555  .00000823  00000-0  76733-4 0  9994,2 55318  70.0007 135.7946 0002886 266.6206  93.4623 14.98332191 59906,6950.186,96.107,574.057,570.045,0.0
55318.0,STARLINK-5180,PAYLOAD,2024-02-03 13:26:22,14.98306485,0.000254,70.0012,133.6058,261.3918,98.6953,0.00041729,4.886e-05,0.0,0 STARLINK-5180,1 55318U 23010BB  24034.55998112  .00004886  00000-0  41729-3 0  9993,2 55318  70.0012 133.6058 0002540 261.3918  98.6953 14.98306485 60038,6950.266,96.109,573.896,570.365,0.0
55318.0,STARLINK-5180,PAYLOAD,2024-02-03 16:38:39,14.98278443,0.000233,70.0014,133.2692,262.9817,97.1077,0.00093693,0.00011089,0.0,0 STARLINK-5180,1 55318U 23010BB  24034.69350762  .00011089  00000-0  93693-3 0  9991,2 55318  70.0014 133.2692 0002330 262.9817  97.1077 14.98278443 58863,6950.352,96.11,573.837,570.598,0.0
55318.0,STARLINK-5180,PAYLOAD,2024-02-04 11:52:14,14.98328828,0.0002494,70.0014,131.2497,259.3259,100.7619,-1.1242e-05,-2.27e-06,0.0,0 STARLINK-5180,1 55318U 23010BB  24035.49461739 -.00000227  00000-0 -11242-4 0  9992,2 55318  70.0014 131.2497 0002494 259.3259 100.7619 14.98328828 58984,6950.197,96.107,573.795,570.328,0.0
55318.0,STARLINK-5180,PAYLOAD,2024-02-04 13:28:23,14.98328849,0.0002493,70.0014,131.0815,260.0908,99.997,-7.1944e-06,-1.79e-06,0.0,0 STARLINK-5180,1 55318U 23010BB  24035.56137732 -.00000179  00000-0 -71944-5 0  9995,2 55318  70.0014 131.0815 0002493 260.0908  99.9970 14.98328849 60182,6950.196,96.107,573.794,570.329,0.0
55318.0,STARLINK-5180,PAYLOAD,2024-02-04 16:40:39,14.98329968,0.0002485,70.0014,130.7448,261.2228,98.865,-8.9975e-06,-2e-06,0.0,0 STARLINK-5180,1 55318U 23010BB  24035.69489668 -.00000200  00000-0 -89975-5 0  9995,2 55318  70.0014 130.7448 0002485 261.2228  98.8650 14.98329968 60208,6950.193,96.107,573.785,570.331,0.0
55318.0,STARLINK-5180,PAYLOAD,2024-02-05 11:54:15,14.98332612,0.0002629,70.0011,128.7248,265.0272,95.0587,4.1697e-05,4.05e-06,0.0,0 STARLINK-5180,1 55318U 23010BB  24036.49601201  .00000405  00000-0  41697-4 0  9996,2 55318  70.0011 128.7248 0002629 265.0272  95.0587 14.98332612 59139,6950.185,96.107,573.877,570.223,0.0
55318.0,STARLINK-5180,PAYLOAD,2024-02-05 13:30:23,14.98333194,0.0002788,70.0008,128.5563,269.3211,90.7628,4.0306e-05,3.88e-06,0.0,0 STARLINK-5180,1 55318U 23010BB  24036.56277162  .00000388  00000-0  40306-4 0  9995,2 55318  70.0008 128.5563 0002788 269.3211  90.7628 14.98333194 60337,6950.183,96.107,573.986,570.11,0.0
55318.0,STARLINK-5180,PAYLOAD,2024-02-05 15:06:31,14.98333889,0.0002697,70.0009,128.3879,267.8487,92.2363,4.9087e-05,4.93e-06,0.0,0 STARLINK-5180,1 55318U 23010BB  24036.62953074  .00000493  00000-0  49087-4 0  9997,2 55318  70.0009 128.3879 0002697 267.8487  92.2363 14.98333889 60348,6950.181,96.107,573.92,570.171,0.0
55318.0,STARLINK-5180,PAYLOAD,2024-02-06 11:56:16,14.98332367,0.0002752,70.0008,126.2007,265.4888,94.5957,1.8436e-05,1.27e-06,0.0,0 STARLINK-5180,1 55318U 23010BB  24037.49741119  .00000127  00000-0  18436-4 0  9996,2 55318  70.0008 126.2007 0002752 265.4888  94.5957 14.98332367 59283,6950.186,96.107,573.963,570.138,0.0
55318.0,STARLINK-5180,PAYLOAD,2024-02-06 13:32:24,14.98326753,0.0002913,70.0008,126.0311,271.2732,88.8093,0.00010672,1.18e-05,0.0,0 STARLINK-5180,1 55318U 23010BB  24037.56417156  .00001180  00000-0  10672-3 0  9998,2 55318  70.0008 126.0311 0002913 271.2732  88.8093 14.98326753 60484,6950.203,96.107,574.093,570.043,0.0
55318.0,STARLINK-5180,PAYLOAD,2024-02-06 15:08:32,14.98330326,0.0002801,70.0009,125.8628,270.4474,89.6364,7.5509e-05,8.08e-06,0.0,0 STARLINK-5180,1 55318U 23010BB  24037.63093028  .00000808  00000-0  75509-4 0  9991,2 55318  70.0009 125.8628 0002801 270.4474  89.6364 14.98330326 60495,6950.192,96.107,574.004,570.11,0.0
55318.0,STARLINK-5180,PAYLOAD,2024-02-07 11:58:17,14.98329503,0.0002594,70.0011,123.6749,265.5322,94.5541,-4.6576e-05,-6.49e-06,0.0,0 STARLINK-5180,1 55318U 23010BB  24038.49881335 -.00000649  00000-0 -46576-4 0  9999,2 55318  70.0011 123.6749 0002594 265.5322  94.5541 14.98329503 59433,6950.194,96.107,573.862,570.257,0.0
55318.0,STARLINK-5180,PAYLOAD,2024-02-07 13:34:25,14.98328946,0.000269,70.0009,123.5066,266.2853,93.7998,-5.6119e-05,-7.62e-06,0.0,0 STARLINK-5180,1 55318U 23010BB  24038.56557408 -.00000762  00000-0 -56119-4 0  9998,2 55318  70.0009 123.5066 0002690 266.2853  93.7998 14.98328946 60636,6950.196,96.107,573.931,570.192,0.0
55318.0,STARLINK-5180,PAYLOAD,2024-02-07 15:10:33,14.98329789,0.0002673,70.001,123.3382,264.7547,95.3307,-3.2128e-05,-4.76e-06,0.0,0 STARLINK-5180,1 55318U 23010BB  24038.63233279 -.00000476  00000-0 -32128-4 0  9999,2 55318  70.0010 123.3382 0002673 264.7547  95.3307 14.98329789 60640,6950.194,96.107,573.916,570.201,0.0
55318.0,STARLINK-5180,PAYLOAD,2024-02-08 12:00:18,14.98326871,0.0002756,70.0007,121.1511,262.3235,97.7611,-5.441e-05,-7.42e-06,0.0,0 STARLINK-5180,1 55318U 23010BB  24039.50021626 -.00000742  00000-0 -54410-4 0  9991,2 55318  70.0007 121.1511 0002756 262.3235  97.7611 14.98326871 59580,6950.203,96.107,573.983,570.152,0.0
55318.0,STARLINK-5180,PAYLOAD,2024-02-08 13:36:26,14.98326162,0.0002733,70.0008,120.9827,263.2366,96.8482,-1.8321e-05,-3.12e-06,0.0,0 STARLINK-5180,1 55318U 23010BB  24039.56697587 -.00000312  00000-0 -18321-4 0  9996,2 55318  70.0008 120.9827 0002733 263.2366  96.8482 14.98326162 60781,6950.205,96.107,573.969,570.17,0.0
55318.0,STARLINK-5180,PAYLOAD,2024-02-08 15:12:34,14.98326583,0.0002694,70.0008,120.8144,261.8592,98.2262,-1.3979e-05,-2.6e-06,0.0,0 STARLINK-5180,1 55318U 23010BB  24039.63373564 -.00000260  00000-0 -13979-4 0  9996,2 55318  70.0008 120.8144 0002694 261.8592  98.2262 14.98326583 60793,6950.203,96.107,573.941,570.196,0.0
55318.0,STARLINK-5180,PAYLOAD,2024-02-09 12:02:19,14.98333195,0.0002801,70.0003,118.6255,266.3108,93.7731,7.6346e-05,8.18e-06,0.0,0 STARLINK-5180,1 55318U 23010BB  24040.50160919  .00000818  00000-0  76346-4 0  9996,2 55318  70.0003 118.6255 0002801 266.3108  93.7731 14.98333195 59739,6950.183,96.107,573.995,570.101,0.0
55318.0,STARLINK-5180,PAYLOAD,2024-02-09 13:38:26,14.98335594,0.0002762,70.0004,118.4573,266.0573,94.0271,0.00010449,1.154e-05,0.0,0 STARLINK-5180,1 55318U 23010BB  24040.56836668  .00001154  00000-0  10449-3 0  9998,2 55318  70.0004 118.4573 0002762 266.0573  94.0271 14.98335594 60932,6950.176,96.107,573.96,570.121,0.0
55318.0,STARLINK-5180,PAYLOAD,2024-02-10 04:03:37,14.98348348,0.0004127,69.9992,116.9374,265.6548,94.4139,0.00027255,3.162e-05,0.0,0 STARLINK-5180,1 55318U 23010BB  24041.16918380  .00003162  00000-0  27255-3 0  9991,2 55318  69.9992 116.9374 0004127 265.6548  94.4139 14.98348348 59836,6950.136,96.106,574.869,569.133,0.0
55318.0,STARLINK-5180,PAYLOAD,2024-02-10 12:04:21,14.98309287,0.0002559,70.0003,116.1006,258.4596,101.6276,-0.00020155,-2.496e-05,0.0,0 STARLINK-5180,1 55318U 23010BB  24041.50302174 -.00002496  00000-0 -20155-3 0  9990,2 55318  70.0003 116.1006 0002559 258.4596 101.6276 14.98309287 59883,6950.257,96.108,573.901,570.343,0.0
55318.0,STARLINK-5180,PAYLOAD,2024-02-10 13:40:29,14.9831024,0.0002559,70.0003,115.9323,259.9522,100.1349,-0.00019041,-2.363e-05,0.0,0 STARLINK-5180,1 55318U 23010BB  24041.56978137 -.00002363  00000-0 -19041-3 0  9999,2 55318  70.0003 115.9323 0002559 259.9522 100.1349 14.98310240 61088,6950.254,96.108,573.898,570.34,0.0
55318.0,STARLINK-5180,PAYLOAD,2024-02-10 15:16:37,14.98313777,0.0002628,70.0002,115.7632,266.9544,93.1314,-0.00019497,-2.417e-05,0.0,0 STARLINK-5180,1 55318U 23010BB  24041.63654021 -.00002417  00000-0 -19497-3 0  9995,2 55318  70.0002 115.7632 0002628 266.9544  93.1314 14.98313777 61099,6950.243,96.108,573.935,570.282,0.0
55318.0,STARLINK-5180,PAYLOAD,2024-02-11 04:05:41,14.98350766,0.0002837,69.9982,114.4164,256.3035,103.7809,-0.00059533,-7.193e-05,0.0,0 STARLINK-5180,1 55318U 23010BB  24042.17061382 -.00007193  00000-0 -59533-3 0  9998,2 55318  69.9982 114.4164 0002837 256.3035 103.7809 14.98350766 59980,6950.129,96.106,573.965,570.022,0.0
55318.0,STARLINK-5180,PAYLOAD,2024-02-11 13:42:28,14.98332781,0.0002268,70.0009,113.4077,253.7037,106.3872,-4.7403e-05,-6.58e-06,0.0,0 STARLINK-5180,1 55318U 23010BB  24042.57116700 -.00000658  00000-0 -47403-4 0  9990,2 55318  70.0009 113.4077 0002268 253.7037 106.3872 14.98332781 61233,6950.184,96.107,573.626,570.473,0.0
